GLOBALSTAR M068         
1 32266U 07048D   26001.59745047 -.00000019  00000+0  47060-3 0  9998
2 32266  51.9897  57.4283 0001194 189.7892 325.6191 12.62837098842623
GLOBALSTAR M079         
1 37188U 10054A   26001.07493943 -.00000049  00000+0  30706-3 0  9997
2 37188  52.0031 257.3869 0000977  50.7258  88.5748 12.62269631701444
GLOBALSTAR M074         
1 37189U 10054B   26001.10252863 -.00000056  00000+0  26696-3 0  9997
2 37189  52.0009 256.5947 0001022  70.4590  73.8601 12.62264861702051
GLOBALSTAR M076         
1 37190U 10054C   26001.13044351 -.00000063  00000+0  22556-3 0  9992
2 37190  52.0023 256.6996 0001143  63.7880  86.5628 12.62268749701772
GLOBALSTAR M077         
1 37191U 10054D   26001.08073091 -.00000028  00000+0  91044-3 0  9999
2 37191  51.9955 243.7504 0001552  56.8751  92.3199 11.68176960701610
GLOBALSTAR M075         
1 37192U 10054E   25358.21427079 -.00000088  00000+0  85706-4 0  9993
2 37192  52.0022 322.9423 0000480 109.7567 352.3949 12.62261317699849
GLOBALSTAR M073         
1 37193U 10054F   26001.59293119 -.00000063  00000+0  22657-3 0  9995
2 37193  52.0034 211.4092 0001192  71.6298 320.7696 12.62268693702898
GLOBALSTAR M083         
1 37739U 11033A   26001.61601705 -.00000090  00000+0  78593-4 0  9997
2 37739  51.9838 159.7932 0000989  87.3743 351.8976 12.62266339671912
GLOBALSTAR M088         
1 37740U 11033B   26001.35211058 -.00000091  00000+0  70247-4 0  9997
2 37740  52.0229  66.6206 0000565 133.2241 305.6776 12.62271240667427
GLOBALSTAR M091         
1 37741U 11033C   26001.54196337 -.00000086  00000+0  99029-4 0  9994
2 37741  52.0013  29.2558 0000154 129.1392  32.0409 12.62268362668234
GLOBALSTAR M085         
1 37742U 11033D   26001.27944757 -.00000093  00000+0  61588-4 0  9999
2 37742  52.0149 341.2010 0000313  16.8044  91.5040 12.62267575668717
GLOBALSTAR M081         
1 37743U 11033E   25351.59018587 -.00000087  00000+0  92331-4 0  9998
2 37743  51.9980  28.5496 0000222  94.7932  71.3857 12.62270971667009
GLOBALSTAR M089         
1 37744U 11033F   26001.59656779 -.00000072  00000+0  17630-3 0  9995
2 37744  51.9947 297.0525 0000848  73.1690  97.7915 12.62263082669740
GLOBALSTAR M084         
1 38040U 11080A   26001.58883346 -.00000094  00000+0  54786-4 0  9996
2 38040  51.9991 164.4677 0001335  99.0430 335.9558 12.62267108647722
GLOBALSTAR M080         
1 38041U 11080B   26001.64070940 -.00000085  00000+0  10705-3 0  9994
2 38041  52.0042 165.9705 0000626 110.9944 329.6917 12.62265569647857
GLOBALSTAR M082         
1 38042U 11080C   26001.49729437 -.00000117  00000+0 -74096-4 0  9991
2 38042  52.0067 121.8896 0000595 125.2603 313.1168 12.62266447648542
GLOBALSTAR M092         
1 38043U 11080D   26001.53651167 -.00000058  00000+0  25297-3 0  9992
2 38043  52.0058 212.1596 0001026  82.0115 294.3971 12.62269115647009
GLOBALSTAR M090         
1 38044U 11080E   26001.60851767 -.00000116  00000+0 -65674-4 0  9999
2 38044  52.0117 115.4538 0000710 105.2563 357.6251 12.62265579648679
GLOBALSTAR M086         
1 38045U 11080F   26001.61288845 -.00000102  00000+0  97051-5 0  9991
2 38045  51.9893 115.6417 0001512  66.9580 306.6644 12.62281710648620
GLOBALSTAR M097         
1 39072U 13005A   26001.47987385 -.00000083  00000+0  11420-3 0  9992
2 39072  52.0067  30.8069 0000323  81.7178 278.3726 12.62267832595855
GLOBALSTAR M093         
1 39073U 13005B   26001.37455514 -.00000088  00000+0  89341-4 0  9999
2 39073  52.0126  24.4118 0000307  29.9592 330.1293 12.62271337595796
GLOBALSTAR M094         
1 39074U 13005C   26001.21611265 -.00000093  00000+0  60238-4 0  9990
2 39074  51.9975 299.1790 0000717  36.0693 324.0222 12.62265510597387
GLOBALSTAR M096         
1 39075U 13005D   26001.30830123 -.00000095  00000+0  50936-4 0  9993
2 39075  52.0100 347.5649 0000353  21.4598 338.6283 12.62269645596312
GLOBALSTAR M078         
1 39076U 13005E   26001.59899742 -.00000135  00000+0 -17269-3 0  9994
2 39076  51.9886  70.9220 0000583 228.1363 131.9454 12.62270940594979
GLOBALSTAR M095         
1 39077U 13005F   26001.54613529 -.00000083  00000+0  11789-3 0  9999
2 39077  52.0096  68.4507 0000091 149.0358 211.0515 12.62267552594821
GLOBALSTAR M087         
1 52888U 22064A   26001.55924279 -.00000070  00000+0  19060-3 0  9993
2 52888  51.9969 209.7446 0000968  69.5896 290.5075 12.62262189170094
